STARLINK-32005          
1 60034U 24111U   26068.42312596 -.00000628  00000+0 -90654-5 0  9992
2 60034  53.1608  76.7898 0001341  94.4829 265.6325 15.30189799 98893
SCS-01 D                
1 63985U 25100D   26068.75607686  .00032471  00000+0  10528-2 0  9990
2 63985  97.3730 145.4097 0006346 266.2302  93.8214 15.31902149 45621
