[{"OBJECT_NAME":"STARLINK-32005","OBJECT_ID":"2024-111U","EPOCH":"2026-03-09T10:09:18.082944","MEAN_MOTION":15.30189799,"ECCENTRICITY":0.00013417,"INCLINATION":53.1608,"RA_OF_ASC_NODE":76.7898,"ARG_OF_PERICENTER":94.4829,"MEAN_ANOMALY":265.6325,"EPHEMERIS_TYPE":0,"CLASSIFICATION_TYPE":"U","NORAD_CAT_ID":60034,"ELEMENT_SET_NO":999,"REV_AT_EPOCH":9889,"BSTAR":-9.065365e-6,"MEAN_MOTION_DOT":-6.28e-6,"MEAN_MOTION_DDOT":0},{"OBJECT_NAME":"SCS-01 D","OBJECT_ID":"2025-100D","EPOCH":"2026-03-09T18:08:45.040704","MEAN_MOTION":15.31902149,"ECCENTRICITY":0.00063457,"INCLINATION":97.373,"RA_OF_ASC_NODE":145.4097,"ARG_OF_PERICENTER":266.2302,"MEAN_ANOMALY":93.8214,"EPHEMERIS_TYPE":0,"CLASSIFICATION_TYPE":"U","NORAD_CAT_ID":63985,"ELEMENT_SET_NO":999,"REV_AT_EPOCH":4562,"BSTAR":0.0010528181,"MEAN_MOTION_DOT":0.00032471,"MEAN_MOTION_DDOT":0}]
